[{"OBJECT_NAME":"STARLINK-5122","OBJECT_ID":"2022-141Y","EPOCH":"2025-12-13T06:38:04.043616","MEAN_MOTION":15.08843057,"ECCENTRICITY":0.00013253,"INCLINATION":53.2181,"RA_OF_ASC_NODE":31.9406,"ARG_OF_PERICENTER":82.773,"MEAN_ANOMALY":277.3413,"EPHEMERIS_TYPE":0,"CLASSIFICATION_TYPE":"U","NORAD_CAT_ID":54179,"ELEMENT_SET_NO":999,"REV_AT_EPOCH":17281,"BSTAR":4.6637513e-5,"MEAN_MOTION_DOT":4.54e-6,"MEAN_MOTION_DDOT":0},{"OBJECT_NAME":"STARLINK-5228","OBJECT_ID":"2022-141Z","EPOCH":"2025-12-13T07:41:37.399200","MEAN_MOTION":15.08846929,"ECCENTRICITY":0.00014558,"INCLINATION":53.2187,"RA_OF_ASC_NODE":31.5038,"ARG_OF_PERICENTER":86.0444,"MEAN_ANOMALY":274.0714,"EPHEMERIS_TYPE":0,"CLASSIFICATION_TYPE":"U","NORAD_CAT_ID":54180,"ELEMENT_SET_NO":999,"REV_AT_EPOCH":17282,"BSTAR":0.00031573276,"MEAN_MOTION_DOT":4.741e-5,"MEAN_MOTION_DDOT":0},{"OBJECT_NAME":"STARLINK-5227","OBJECT_ID":"2022-141AA","EPOCH":"2025-12-13T03:11:24.478944","MEAN_MOTION":15.08828691,"ECCENTRICITY":0.00014242,"INCLINATION":53.2202,"RA_OF_ASC_NODE":32.4646,"ARG_OF_PERICENTER":84.8647,"MEAN_ANOMALY":275.2508,"EPHEMERIS_TYPE":0,"CLASSIFICATION_TYPE":"U","NORAD_CAT_ID":54181,"ELEMENT_SET_NO":999,"REV_AT_EPOCH":17279,"BSTAR":3.4814624e-5,"MEAN_MOTION_DOT":2.66e-6,"MEAN_MOTION_DDOT":0},{"OBJECT_NAME":"STARLINK-5231","OBJECT_ID":"2022-141AB","EPOCH":"2025-12-13T07:24:24.168384","MEAN_MOTION":15.08834767,"ECCENTRICITY":0.00016055,"INCLINATION":53.2187,"RA_OF_ASC_NODE":1.5343,"ARG_OF_PERICENTER":90.9487,"MEAN_ANOMALY":269.1689,"EPHEMERIS_TYPE":0,"CLASSIFICATION_TYPE":"U","NORAD_CAT_ID":54182,"ELEMENT_SET_NO":999,"REV_AT_EPOCH":17324,"BSTAR":4.185831e-6,"MEAN_MOTION_DOT":-2.21e-6,"MEAN_MOTION_DDOT":0},{"OBJECT_NAME":"STARLINK-5239","OBJECT_ID":"2022-141AC","EPOCH":"2025-12-13T07:36:19.696032","MEAN_MOTION":15.08834624,"ECCENTRICITY":0.00015238,"INCLINATION":53.2204,"RA_OF_ASC_NODE":31.4816,"ARG_OF_PERICENTER":85.5954,"MEAN_ANOMALY":274.5212,"EPHEMERIS_TYPE":0,"CLASSIFICATION_TYPE":"U","NORAD_CAT_ID":54183,"ELEMENT_SET_NO":999,"REV_AT_EPOCH":17282,"BSTAR":8.2132493e-5,"MEAN_MOTION_DOT":1.019e-5,"MEAN_MOTION_DDOT":0},{"OBJECT_NAME":"STARLINK-5162","OBJECT_ID":"2022-141AD","EPOCH":"2025-12-13T07:43:07.782240","MEAN_MOTION":15.08840341,"ECCENTRICITY":0.00015375,"INCLINATION":53.2201,"RA_OF_ASC_NODE":32.2028,"ARG_OF_PERICENTER":95.5806,"MEAN_ANOMALY":264.5361,"EPHEMERIS_TYPE":0,"CLASSIFICATION_TYPE":"U","NORAD_CAT_ID":54184,"ELEMENT_SET_NO":999,"REV_AT_EPOCH":17281,"BSTAR":0.00019863703,"MEAN_MOTION_DOT":2.875e-5,"MEAN_MOTION_DDOT":0},{"OBJECT_NAME":"STARLINK-5235","OBJECT_ID":"2022-141AE","EPOCH":"2025-12-13T07:52:14.350368","MEAN_MOTION":15.08841691,"ECCENTRICITY":0.00014803,"INCLINATION":53.2187,"RA_OF_ASC_NODE":31.5501,"ARG_OF_PERICENTER":84.5221,"MEAN_ANOMALY":275.594,"EPHEMERIS_TYPE":0,"CLASSIFICATION_TYPE":"U","NORAD_CAT_ID":54185,"ELEMENT_SET_NO":999,"REV_AT_EPOCH":17282,"BSTAR":0.00014125,"MEAN_MOTION_DOT":1.961e-5,"MEAN_MOTION_DDOT":0},{"OBJECT_NAME":"STARLINK-5240","OBJECT_ID":"2022-141AG","EPOCH":"2025-12-13T06:27:27.435456","MEAN_MOTION":15.08836339,"ECCENTRICITY":0.0001254,"INCLINATION":53.217,"RA_OF_ASC_NODE":31.9043,"ARG_OF_PERICENTER":44.1106,"MEAN_ANOMALY":315.9986,"EPHEMERIS_TYPE":0,"CLASSIFICATION_TYPE":"U","NORAD_CAT_ID":54187,"ELEMENT_SET_NO":999,"REV_AT_EPOCH":17281,"BSTAR":1.2253967e-5,"MEAN_MOTION_DOT":-9.3e-7,"MEAN_MOTION_DDOT":0},{"OBJECT_NAME":"STARLINK-5238","OBJECT_ID":"2022-141AH","EPOCH":"2025-12-13T07:11:14.785152","MEAN_MOTION":15.08843241,"ECCENTRICITY":0.00015726,"INCLINATION":53.2176,"RA_OF_ASC_NODE":22.102,"ARG_OF_PERICENTER":87.3848,"MEAN_ANOMALY":272.7324,"EPHEMERIS_TYPE":0,"CLASSIFICATION_TYPE":"U","NORAD_CAT_ID":54188,"ELEMENT_SET_NO":999,"REV_AT_EPOCH":17295,"BSTAR":0.00020993576,"MEAN_MOTION_DOT":3.055e-5,"MEAN_MOTION_DDOT":0},{"OBJECT_NAME":"STARLINK-5281","OBJECT_ID":"2022-141AK","EPOCH":"2025-12-13T07:05:56.318208","MEAN_MOTION":15.08839847,"ECCENTRICITY":0.00015962,"INCLINATION":53.2197,"RA_OF_ASC_NODE":22.0782,"ARG_OF_PERICENTER":88.4244,"MEAN_ANOMALY":271.6931,"EPHEMERIS_TYPE":0,"CLASSIFICATION_TYPE":"U","NORAD_CAT_ID":54190,"ELEMENT_SET_NO":999,"REV_AT_EPOCH":17295,"BSTAR":9.27291e-5,"MEAN_MOTION_DOT":1.188e-5,"MEAN_MOTION_DDOT":0},{"OBJECT_NAME":"STARLINK-4619","OBJECT_ID":"2022-141AL","EPOCH":"2025-12-13T07:21:52.488864","MEAN_MOTION":15.08842851,"ECCENTRICITY":0.00014471,"INCLINATION":53.218,"RA_OF_ASC_NODE":22.1488,"ARG_OF_PERICENTER":97.8221,"MEAN_ANOMALY":262.2935,"EPHEMERIS_TYPE":0,"CLASSIFICATION_TYPE":"U","NORAD_CAT_ID":54191,"ELEMENT_SET_NO":999,"REV_AT_EPOCH":17295,"BSTAR":0.00045554599,"MEAN_MOTION_DOT":6.97e-5,"MEAN_MOTION_DDOT":0},{"OBJECT_NAME":"STARLINK-5268","OBJECT_ID":"2022-141AM","EPOCH":"2025-12-13T07:48:15.424128","MEAN_MOTION":15.08841611,"ECCENTRICITY":0.00012461,"INCLINATION":53.2175,"RA_OF_ASC_NODE":21.5488,"ARG_OF_PERICENTER":91.2585,"MEAN_ANOMALY":268.855,"EPHEMERIS_TYPE":0,"CLASSIFICATION_TYPE":"U","NORAD_CAT_ID":54192,"ELEMENT_SET_NO":999,"REV_AT_EPOCH":17296,"BSTAR":-2.5599536e-5,"MEAN_MOTION_DOT":-6.95e-6,"MEAN_MOTION_DDOT":0},{"OBJECT_NAME":"STARLINK-5263","OBJECT_ID":"2022-141AN","EPOCH":"2025-12-13T06:55:17.747904","MEAN_MOTION":15.08864251,"ECCENTRICITY":0.00013515,"INCLINATION":53.2183,"RA_OF_ASC_NODE":22.0313,"ARG_OF_PERICENTER":97.1257,"MEAN_ANOMALY":262.9889,"EPHEMERIS_TYPE":0,"CLASSIFICATION_TYPE":"U","NORAD_CAT_ID":54193,"ELEMENT_SET_NO":999,"REV_AT_EPOCH":17295,"BSTAR":0.0003507396,"MEAN_MOTION_DOT":5.302e-5,"MEAN_MOTION_DDOT":0},{"OBJECT_NAME":"STARLINK-5271","OBJECT_ID":"2022-141AP","EPOCH":"2025-12-13T06:44:40.696512","MEAN_MOTION":15.088555,"ECCENTRICITY":0.00015694,"INCLINATION":53.2191,"RA_OF_ASC_NODE":21.9849,"ARG_OF_PERICENTER":93.9142,"MEAN_ANOMALY":266.2029,"EPHEMERIS_TYPE":0,"CLASSIFICATION_TYPE":"U","NORAD_CAT_ID":54194,"ELEMENT_SET_NO":999,"REV_AT_EPOCH":17295,"BSTAR":0.00020568996,"MEAN_MOTION_DOT":2.988e-5,"MEAN_MOTION_DDOT":0},{"OBJECT_NAME":"STARLINK-5258","OBJECT_ID":"2022-141AQ","EPOCH":"2025-12-13T07:00:35.840736","MEAN_MOTION":15.08908572,"ECCENTRICITY":0.00017798,"INCLINATION":53.2202,"RA_OF_ASC_NODE":22.0553,"ARG_OF_PERICENTER":80.9913,"MEAN_ANOMALY":279.1281,"EPHEMERIS_TYPE":0,"CLASSIFICATION_TYPE":"U","NORAD_CAT_ID":54195,"ELEMENT_SET_NO":999,"REV_AT_EPOCH":17295,"BSTAR":-0.00079107844,"MEAN_MOTION_DOT":-0.0001288,"MEAN_MOTION_DDOT":0},{"OBJECT_NAME":"STARLINK-5237","OBJECT_ID":"2022-141AR","EPOCH":"2025-12-13T06:34:05.886336","MEAN_MOTION":15.08836678,"ECCENTRICITY":0.00012638,"INCLINATION":53.2181,"RA_OF_ASC_NODE":21.9404,"ARG_OF_PERICENTER":92.0948,"MEAN_ANOMALY":268.0189,"EPHEMERIS_TYPE":0,"CLASSIFICATION_TYPE":"U","NORAD_CAT_ID":54196,"ELEMENT_SET_NO":999,"REV_AT_EPOCH":17295,"BSTAR":9.2673905e-5,"MEAN_MOTION_DOT":1.187e-5,"MEAN_MOTION_DDOT":0},{"OBJECT_NAME":"STARLINK-5246","OBJECT_ID":"2022-141AT","EPOCH":"2025-12-13T06:28:47.900640","MEAN_MOTION":15.08836723,"ECCENTRICITY":0.0001282,"INCLINATION":53.2181,"RA_OF_ASC_NODE":21.9176,"ARG_OF_PERICENTER":93.2038,"MEAN_ANOMALY":266.9101,"EPHEMERIS_TYPE":0,"CLASSIFICATION_TYPE":"U","NORAD_CAT_ID":54198,"ELEMENT_SET_NO":999,"REV_AT_EPOCH":17295,"BSTAR":5.739374e-6,"MEAN_MOTION_DOT":-1.97e-6,"MEAN_MOTION_DDOT":0},{"OBJECT_NAME":"STARLINK-5244","OBJECT_ID":"2022-141AU","EPOCH":"2025-12-13T06:39:24.670368","MEAN_MOTION":15.08838632,"ECCENTRICITY":0.00011672,"INCLINATION":53.2168,"RA_OF_ASC_NODE":21.9621,"ARG_OF_PERICENTER":84.1058,"MEAN_ANOMALY":276.0067,"EPHEMERIS_TYPE":0,"CLASSIFICATION_TYPE":"U","NORAD_CAT_ID":54199,"ELEMENT_SET_NO":999,"REV_AT_EPOCH":17295,"BSTAR":8.1428027e-5,"MEAN_MOTION_DOT":1.008e-5,"MEAN_MOTION_DDOT":0},{"OBJECT_NAME":"STARLINK-5250","OBJECT_ID":"2022-141AV","EPOCH":"2025-12-13T07:53:33.988704","MEAN_MOTION":15.08834775,"ECCENTRICITY":0.00014538,"INCLINATION":53.2183,"RA_OF_ASC_NODE":21.5753,"ARG_OF_PERICENTER":89.1491,"MEAN_ANOMALY":270.9668,"EPHEMERIS_TYPE":0,"CLASSIFICATION_TYPE":"U","NORAD_CAT_ID":54200,"ELEMENT_SET_NO":999,"REV_AT_EPOCH":17296,"BSTAR":3.3530778e-5,"MEAN_MOTION_DOT":2.46e-6,"MEAN_MOTION_DDOT":0},{"OBJECT_NAME":"STARLINK-5199","OBJECT_ID":"2022-141AW","EPOCH":"2025-12-13T06:50:01.128192","MEAN_MOTION":15.08837473,"ECCENTRICITY":0.00011231,"INCLINATION":53.2185,"RA_OF_ASC_NODE":22.0027,"ARG_OF_PERICENTER":96.7405,"MEAN_ANOMALY":263.3715,"EPHEMERIS_TYPE":0,"CLASSIFICATION_TYPE":"U","NORAD_CAT_ID":54201,"ELEMENT_SET_NO":999,"REV_AT_EPOCH":17295,"BSTAR":6.6317761e-5,"MEAN_MOTION_DOT":7.68e-6,"MEAN_MOTION_DDOT":0},{"OBJECT_NAME":"STARLINK-5205","OBJECT_ID":"2022-141AX","EPOCH":"2025-12-13T07:42:56.894112","MEAN_MOTION":15.08841005,"ECCENTRICITY":0.00012268,"INCLINATION":53.2177,"RA_OF_ASC_NODE":21.5295,"ARG_OF_PERICENTER":89.7272,"MEAN_ANOMALY":270.3861,"EPHEMERIS_TYPE":0,"CLASSIFICATION_TYPE":"U","NORAD_CAT_ID":54202,"ELEMENT_SET_NO":999,"REV_AT_EPOCH":17296,"BSTAR":5.8091855e-5,"MEAN_MOTION_DOT":6.37e-6,"MEAN_MOTION_DDOT":0},{"OBJECT_NAME":"STARLINK-5247","OBJECT_ID":"2022-141AY","EPOCH":"2025-12-13T06:23:29.223744","MEAN_MOTION":15.08838292,"ECCENTRICITY":0.00013621,"INCLINATION":53.2188,"RA_OF_ASC_NODE":21.8956,"ARG_OF_PERICENTER":92.3748,"MEAN_ANOMALY":267.7401,"EPHEMERIS_TYPE":0,"CLASSIFICATION_TYPE":"U","NORAD_CAT_ID":54203,"ELEMENT_SET_NO":999,"REV_AT_EPOCH":17295,"BSTAR":1.6955669e-5,"MEAN_MOTION_DOT":-1.8e-7,"MEAN_MOTION_DDOT":0},{"OBJECT_NAME":"STARLINK-5241","OBJECT_ID":"2022-141AZ","EPOCH":"2025-12-13T05:51:39.788928","MEAN_MOTION":15.08834048,"ECCENTRICITY":0.00012214,"INCLINATION":53.2172,"RA_OF_ASC_NODE":21.7609,"ARG_OF_PERICENTER":81.3061,"MEAN_ANOMALY":278.8069,"EPHEMERIS_TYPE":0,"CLASSIFICATION_TYPE":"U","NORAD_CAT_ID":54204,"ELEMENT_SET_NO":999,"REV_AT_EPOCH":17295,"BSTAR":0.00013658035,"MEAN_MOTION_DOT":1.886e-5,"MEAN_MOTION_DDOT":0}]
